[{"OBJECT_NAME":"SHIYAN-3 (SY-3)","OBJECT_ID":"2008-056A","EPOCH":"2026-03-09T16:28:21.411552","MEAN_MOTION":14.30765435,"ECCENTRICITY":0.00146908,"INCLINATION":98.6178,"RA_OF_ASC_NODE":96.1558,"ARG_OF_PERICENTER":69.2006,"MEAN_ANOMALY":291.0749,"EPHEMERIS_TYPE":0,"CLASSIFICATION_TYPE":"U","NORAD_CAT_ID":33433,"ELEMENT_SET_NO":999,"REV_AT_EPOCH":90457,"BSTAR":0.00010019007,"MEAN_MOTION_DOT":2.19e-6,"MEAN_MOTION_DDOT":0},{"OBJECT_NAME":"TANSEI-3 DEB","OBJECT_ID":"1977-012K","EPOCH":"2026-03-07T07:42:34.283232","MEAN_MOTION":10.76853951,"ECCENTRICITY":0.1721702,"INCLINATION":65.7465,"RA_OF_ASC_NODE":198.51,"ARG_OF_PERICENTER":284.813,"MEAN_ANOMALY":56.8947,"EPHEMERIS_TYPE":0,"CLASSIFICATION_TYPE":"U","NORAD_CAT_ID":14512,"ELEMENT_SET_NO":999,"REV_AT_EPOCH":8894,"BSTAR":0.00019798,"MEAN_MOTION_DOT":3.3e-7,"MEAN_MOTION_DDOT":0}]
